     2.10           N: GPS NAV DATA                         RINEX VERSION / TYPE
HuaceNav                                                    PGM / RUN BY / DATE 
     GPS RECEIVER NAVIGATION DATA                           COMMENT             
                                                            END OF HEADER       
03 17  5 15  2  0  0.0 -1.00397504866D-04  1.81898940355D-12  0.00000000000D+00
     0.00000000000D+00  1.01250000000D+01  4.87913180685D-09  2.40222392604D+00
     4.82425093651D-07  6.37512071989D-04  6.02193176746D-06  5.15373261642D+03
     9.36000000000D+04 -2.60770320892D-08 -1.22243690962D+00  3.53902578354D-08
     9.59433182803D-01  2.61812500000D+02  6.06213400250D-02 -8.09569436102D-09
     1.15004790411D-10  0.00000000000D+00  1.94900000000D+03  0.00000000000D+00
     2.00000000000D+00  0.00000000000D+00  2.32830643654D-09  4.90000000000D+01
     9.36000000000D+04  0.00000000000D+00  0.00000000000D+00  0.00000000000D+00
10 17  5 15  2  0  0.0 -5.35007566214D-05  9.66338120634D-12  0.00000000000D+00
     0.00000000000D+00  1.35312500000D+01  4.94234872581D-09  8.37201947564D-01
     8.32602381706D-07  2.50998197589D-03  5.70341944695D-06  5.15366646194D+03
     9.36000000000D+04  3.16649675369D-08 -1.22616270157D+00  0.00000000000D+00
     9.59599854523D-01  2.66406250000D+02 -2.77385445948D+00 -8.20891336276D-09
     2.28580949885D-11  0.00000000000D+00  1.94900000000D+03  0.00000000000D+00
     2.00000000000D+00  0.00000000000D+00  1.86264514923D-09  3.40000000000D+01
     9.36000000000D+04  0.00000000000D+00  0.00000000000D+00  0.00000000000D+00
14 17  5 15  2  0  0.0 -7.07288272679D-05 -1.36424205266D-12  0.00000000000D+00
     0.00000000000D+00  2.84375000000D+00  4.40982654412D-09 -1.44485468658D+00
     9.87201929092D-08  9.06576088164D-03  8.63336026669D-06  5.15364752769D+03
     9.36000000000D+04  2.16066837311D-07 -9.94757698051D-02  2.04890966415D-07
     9.62544600360D-01  2.15406250000D+02 -1.96050284572D+00 -7.84675542029D-09
    -5.71809532448D-10  0.00000000000D+00  1.94900000000D+03  0.00000000000D+00
     2.00000000000D+00  0.00000000000D+00 -9.31322574615D-09  5.20000000000D+01
     9.36000000000D+04  0.00000000000D+00  0.00000000000D+00  0.00000000000D+00
22 17  5 15  2  0  0.0  9.80589538813D-06 -1.21644916362D-11  0.00000000000D+00
     0.00000000000D+00  1.69062500000D+01  5.69202280988D-09 -1.63321198412D+00
     9.20146703720D-07  7.53742025699D-03  5.68665564060D-06  5.15381953239D+03
     9.36000000000D+04  1.06170773506D-07 -1.26795826963D+00  1.82539224625D-07
     9.23207928413D-01  2.47125000000D+02 -1.73762228486D+00 -8.48606776450D-09
     1.23219418298D-10  0.00000000000D+00  1.94900000000D+03  0.00000000000D+00
     2.00000000000D+00  0.00000000000D+00 -1.76951289177D-08  1.84000000000D+02
     9.36000000000D+04  0.00000000000D+00  0.00000000000D+00  0.00000000000D+00
25 17  5 15  2  0  0.0 -3.87337058783D-04 -6.59383658785D-12  0.00000000000D+00
     0.00000000000D+00  3.41250000000D+01  4.26767776591D-09  1.26965596412D+00
     1.64844095707D-06  6.52046594769D-03  2.77720391750D-06  5.15359390068D+03
     9.36000000000D+04 -6.70552253723D-08  1.92140675650D+00  9.49949026108D-08
     9.76983818315D-01  3.32312500000D+02  8.08059277930D-01 -8.25284376407D-09
     1.32862677121D-10  0.00000000000D+00  1.94900000000D+03  0.00000000000D+00
     2.00000000000D+00  0.00000000000D+00  5.58793544769D-09  3.30000000000D+01
     9.36000000000D+04  0.00000000000D+00  0.00000000000D+00  0.00000000000D+00
26 17  5 15  2  0  0.0 -5.04242721945D-04  4.20641299570D-12  0.00000000000D+00
     0.00000000000D+00  3.51875000000D+01  4.67090884782D-09  6.54094653394D-01
     1.89058482647D-06  1.83168356307D-03  2.15694308281D-06  5.15370111275D+03
     9.36000000000D+04  8.56816768646D-08  1.90619756672D+00  3.35276126862D-08
     9.58763750027D-01  3.37375000000D+02  9.54961293857D-02 -8.36641992354D-09
     1.95365280605D-10  0.00000000000D+00  1.94900000000D+03  0.00000000000D+00
     2.00000000000D+00  0.00000000000D+00  7.45058059692D-09  3.30000000000D+01
     9.36000000000D+04  0.00000000000D+00  0.00000000000D+00  0.00000000000D+00
29 17  5 15  2  0  0.0  6.04243949056D-04 -3.29691829393D-12  0.00000000000D+00
     0.00000000000D+00 -9.04062500000D+01  4.11267130927D-09  6.76467292184D-01
    -4.81121242046D-06  7.00984266587D-04  6.52298331261D-06  5.15363501549D+03
     9.36000000000D+04  5.58793544769D-09  3.02319716761D+00 -3.53902578354D-08
     9.81296323799D-01  2.68906250000D+02  2.99111330410D-01 -7.88997150613D-09
    -8.35749098019D-11  0.00000000000D+00  1.94900000000D+03  0.00000000000D+00
     3.00000000000D+00  0.00000000000D+00 -9.77888703346D-09  9.10000000000D+01
     9.36000000000D+04  0.00000000000D+00  0.00000000000D+00  0.00000000000D+00
31 17  5 15  2  0  0.0  2.01075337827D-04 -2.38742359215D-12  0.00000000000D+00
     0.00000000000D+00  9.40000000000D+01  4.04302555110D-09  2.18185434411D+00
     4.97698783875D-06  8.43580171932D-03  8.59983265400D-06  5.15370449829D+03
     9.36000000000D+04 -2.04890966415D-08  9.02976011295D-01  6.70552253723D-08
     9.67336172017D-01  2.18781250000D+02 -2.57519839421D-01 -7.72925052574D-09
    -6.14311302817D-11  0.00000000000D+00  1.94900000000D+03  0.00000000000D+00
     2.00000000000D+00  0.00000000000D+00 -1.35041773319D-08  7.80000000000D+01
     9.36000000000D+04  0.00000000000D+00  0.00000000000D+00  0.00000000000D+00
32 17  5 15  2  0  0.0 -4.13829926401D-04 -1.04591890704D-11  0.00000000000D+00
     0.00000000000D+00 -5.21875000000D+00  4.58340520294D-09 -4.10983660285D-01
    -4.41446900368D-07  1.16118812002D-03  8.06897878647D-06  5.15372204781D+03
     9.36000000000D+04  4.09781932831D-08 -1.82968790939D-01  6.89178705215D-08
     9.58409720926D-01  2.23500000000D+02 -2.61777108630D+00 -7.98997567170D-09
    -5.63237746827D-10  0.00000000000D+00  1.94900000000D+03  0.00000000000D+00
     2.00000000000D+00  0.00000000000D+00  4.65661287308D-10  4.90000000000D+01
     9.36000000000D+04  0.00000000000D+00  0.00000000000D+00  0.00000000000D+00
